{"fetched_at":"2026-03-29T02:12:04Z","count":15717,"tles":[{"name":"KINEIS-4D","line1":"1 63302U 25056C   26087.12125447  .00001818  00000+0  29522-3 0  9991","line2":"2 63302  97.9779 213.2545 0001824 176.3612 183.7609 14.72322480 55206","category":"Other"}]}